start=new Date('2021-11-24T00:00:00.000Z').valueOf();
sats=[{"MEAN_ELEMENT_THEORY":"SGP4","MEAN_MOTION_DOT":"-0.00000176","TLE_LINE2":"2 45755  53.0558  52.6797 0001458  79.4711 280.6442 15.06395435 80237","TIME_SYSTEM":"UTC","SITE":"AFETR","COUNTRY_CODE":"US","ELEMENT_SET_NO":"999","PERIOD":"95.592","EPOCH":"2021-11-23T08:27:21.409632","DECAY_DATE":null,"INCLINATION":"53.0558","RCS_SIZE":"LARGE","GP_ID":"190335252","OBJECT_TYPE":"PAYLOAD","ECCENTRICITY":"0.00014580","NORAD_CAT_ID":"45755","FILE":"3222418","SEMIMAJOR_AXIS":"6925.363","PERIAPSIS":"546.218","MEAN_MOTION":"15.06395435","CLASSIFICATION_TYPE":"U","RA_OF_ASC_NODE":"52.6797","OBJECT_NAME":"STARLINK-1478","LAUNCH_DATE":"2020-06-13","APOAPSIS":"548.237","MEAN_MOTION_DDOT":"0.0000000000000","BSTAR":"0.00000706210000","CENTER_NAME":"EARTH","EPHEMERIS_TYPE":"0","REV_AT_EPOCH":"8023","OBJECT_ID":"2020-038AB","TLE_LINE1":"1 45755U 20038AB  21327.35233113 -.00000176  00000-0  70621-5 0  9991","ARG_OF_PERICENTER":"79.4711","REF_FRAME":"TEME","MEAN_ANOMALY":"280.6442"},{"CLASSIFICATION_TYPE":"U","MEAN_MOTION":"15.06389827","OBJECT_NAME":"STARLINK-1484","RA_OF_ASC_NODE":"52.6902","LAUNCH_DATE":"2020-06-13","NORAD_CAT_ID":"45756","FILE":"3222418","ECCENTRICITY":"0.00013110","PERIAPSIS":"546.337","SEMIMAJOR_AXIS":"6925.380","ARG_OF_PERICENTER":"82.1402","REF_FRAME":"TEME","MEAN_ANOMALY":"277.9736","BSTAR":"-0.00001818800000","MEAN_MOTION_DDOT":"0.0000000000000","APOAPSIS":"548.153","CENTER_NAME":"EARTH","EPHEMERIS_TYPE":"0","REV_AT_EPOCH":"8023","TLE_LINE1":"1 45756U 20038AC  21327.34865094 -.00000552  00000-0 -18188-4 0  9998","OBJECT_ID":"2020-038AC","ELEMENT_SET_NO":"999","PERIOD":"95.593","EPOCH":"2021-11-23T08:22:03.441216","MEAN_ELEMENT_THEORY":"SGP4","MEAN_MOTION_DOT":"-0.00000552","TLE_LINE2":"2 45756  53.0565  52.6902 0001311  82.1402 277.9736 15.06389827 80233","TIME_SYSTEM":"UTC","COUNTRY_CODE":"US","SITE":"AFETR","OBJECT_TYPE":"PAYLOAD","GP_ID":"190335003","DECAY_DATE":null,"RCS_SIZE":"LARGE","INCLINATION":"53.0565"},{"EPOCH":"2021-11-23T15:10:44.943168","ELEMENT_SET_NO":"999","PERIOD":"95.592","TIME_SYSTEM":"UTC","SITE":"AFETR","COUNTRY_CODE":"US","MEAN_ELEMENT_THEORY":"SGP4","TLE_LINE2":"2 45757  53.0549  51.4179 0001185  83.0207 277.0917 15.06404500 80273","MEAN_MOTION_DOT":"0.00002067","GP_ID":"190362045","OBJECT_TYPE":"PAYLOAD","INCLINATION":"53.0549","DECAY_DATE":null,"RCS_SIZE":"LARGE","LAUNCH_DATE":"2020-06-13","MEAN_MOTION":"15.06404500","CLASSIFICATION_TYPE":"U","RA_OF_ASC_NODE":"51.4179","OBJECT_NAME":"STARLINK-1486","SEMIMAJOR_AXIS":"6925.335","PERIAPSIS":"546.379","ECCENTRICITY":"0.00011850","FILE":"3222563","NORAD_CAT_ID":"45757","REF_FRAME":"TEME","MEAN_ANOMALY":"277.0917","ARG_OF_PERICENTER":"83.0207","REV_AT_EPOCH":"8027","EPHEMERIS_TYPE":"0","OBJECT_ID":"2020-038AD","TLE_LINE1":"1 45757U 20038AD  21327.63246462  .00002067  00000-0  15761-3 0  9997","APOAPSIS":"548.020","MEAN_MOTION_DDOT":"0.0000000000000","BSTAR":"0.00015761000000","CENTER_NAME":"EARTH"},{"DECAY_DATE":null,"INCLINATION":"53.0558","RCS_SIZE":"LARGE","GP_ID":"190360793","OBJECT_TYPE":"PAYLOAD","MEAN_MOTION_DOT":"-0.00000568","TLE_LINE2":"2 45758  53.0558  51.4487 0001215  73.2210 286.8912 15.06392386 80276","MEAN_ELEMENT_THEORY":"SGP4","SITE":"AFETR","COUNTRY_CODE":"US","TIME_SYSTEM":"UTC","PERIOD":"95.593","ELEMENT_SET_NO":"999","EPOCH":"2021-11-23T15:00:08.408448","CENTER_NAME":"EARTH","APOAPSIS":"548.078","MEAN_MOTION_DDOT":"0.0000000000000","BSTAR":"-0.00001928200000","OBJECT_ID":"2020-038AE","TLE_LINE1":"1 45758U 20038AE  21327.62509732 -.00000568  00000-0 -19282-4 0  9998","REV_AT_EPOCH":"8027","EPHEMERIS_TYPE":"0","ARG_OF_PERICENTER":"73.2210","MEAN_ANOMALY":"286.8912","REF_FRAME":"TEME","ECCENTRICITY":"0.00012150","FILE":"3222563","NORAD_CAT_ID":"45758","SEMIMAJOR_AXIS":"6925.372","PERIAPSIS":"546.395","OBJECT_NAME":"STARLINK-1487","RA_OF_ASC_NODE":"51.4487","MEAN_MOTION":"15.06392386","CLASSIFICATION_TYPE":"U","LAUNCH_DATE":"2020-06-13"},{"SEMIMAJOR_AXIS":"6925.369","PERIAPSIS":"546.556","ECCENTRICITY":"0.00009780","FILE":"3222563","NORAD_CAT_ID":"45759","LAUNCH_DATE":"2020-06-13","MEAN_MOTION":"15.06393471","CLASSIFICATION_TYPE":"U","RA_OF_ASC_NODE":"51.2347","OBJECT_NAME":"STARLINK-1493","REV_AT_EPOCH":"8028","EPHEMERIS_TYPE":"0","OBJECT_ID":"2020-038AF","TLE_LINE1":"1 45759U 20038AF  21327.67301131  .00000099  00000-0  25546-4 0  9994","APOAPSIS":"547.911","MEAN_MOTION_DDOT":"0.0000000000000","BSTAR":"0.00002554600000","CENTER_NAME":"EARTH","REF_FRAME":"TEME","MEAN_ANOMALY":"279.6025","ARG_OF_PERICENTER":"80.5074","TIME_SYSTEM":"UTC","SITE":"AFETR","COUNTRY_CODE":"US","MEAN_ELEMENT_THEORY":"SGP4","TLE_LINE2":"2 45759  53.0552  51.2347 0000978  80.5074 279.6025 15.06393471 80280","MEAN_MOTION_DOT":"0.00000099","EPOCH":"2021-11-23T16:09:08.177184","ELEMENT_SET_NO":"999","PERIOD":"95.593","RCS_SIZE":"LARGE","DECAY_DATE":null,"INCLINATION":"53.0552","GP_ID":"190361043","OBJECT_TYPE":"PAYLOAD"},{"REF_FRAME":"TEME","MEAN_ANOMALY":"279.9177","ARG_OF_PERICENTER":"80.1951","REV_AT_EPOCH":"8028","EPHEMERIS_TYPE":"0","OBJECT_ID":"2020-038AG","TLE_LINE1":"1 45760U 20038AG  21327.61034566  .00000012  00000-0  19694-4 0  9997","APOAPSIS":"548.071","BSTAR":"0.00001969400000","MEAN_MOTION_DDOT":"0.0000000000000","CENTER_NAME":"EARTH","LAUNCH_DATE":"2020-06-13","MEAN_MOTION":"15.06397901","CLASSIFICATION_TYPE":"U","OBJECT_NAME":"STARLINK-1494","RA_OF_ASC_NODE":"51.5221","SEMIMAJOR_AXIS":"6925.355","PERIAPSIS":"546.369","ECCENTRICITY":"0.00012290","NORAD_CAT_ID":"45760","FILE":"3222563","GP_ID":"190361795","OBJECT_TYPE":"PAYLOAD","DECAY_DATE":null,"RCS_SIZE":"LARGE","INCLINATION":"53.0562","EPOCH":"2021-11-23T14:38:53.865024","ELEMENT_SET_NO":"999","PERIOD":"95.592","TIME_SYSTEM":"UTC","SITE":"AFETR","COUNTRY_CODE":"US","MEAN_ELEMENT_THEORY":"SGP4","TLE_LINE2":"2 45760  53.0562  51.5221 0001229  80.1951 279.9177 15.06397901 80280","MEAN_MOTION_DOT":"0.00000012"},{"FILE":"3222418","NORAD_CAT_ID":"45761","ECCENTRICITY":"0.00027100","PERIAPSIS":"395.728","SEMIMAJOR_AXIS":"6775.699","CLASSIFICATION_TYPE":"U","MEAN_MOTION":"15.56580449","OBJECT_NAME":"STARLINK-1495","RA_OF_ASC_NODE":"24.2725","LAUNCH_DATE":"2020-06-13","MEAN_MOTION_DDOT":"0.0000000000000","BSTAR":"0.00052989000000","APOAPSIS":"399.401","CENTER_NAME":"EARTH","EPHEMERIS_TYPE":"0","REV_AT_EPOCH":"8067","TLE_LINE1":"1 45761U 20038AH  21327.58651039  .00038036  00000-0  52989-3 0  9994","OBJECT_ID":"2020-038AH","ARG_OF_PERICENTER":"46.0278","REF_FRAME":"TEME","MEAN_ANOMALY":"314.0956","MEAN_ELEMENT_THEORY":"SGP4","MEAN_MOTION_DOT":"0.00038036","TLE_LINE2":"2 45761  53.0565  24.2725 0002710  46.0278 314.0956 15.56580449 80674","TIME_SYSTEM":"UTC","COUNTRY_CODE":"US","SITE":"AFETR","ELEMENT_SET_NO":"999","PERIOD":"92.510","EPOCH":"2021-11-23T14:04:34.497696","RCS_SIZE":"LARGE","DECAY_DATE":null,"INCLINATION":"53.0565","OBJECT_TYPE":"PAYLOAD","GP_ID":"190335755"},{"PERIAPSIS":"546.481","SEMIMAJOR_AXIS":"6925.371","NORAD_CAT_ID":"45762","FILE":"3222418","ECCENTRICITY":"0.00010910","LAUNCH_DATE":"2020-06-13","CLASSIFICATION_TYPE":"U","MEAN_MOTION":"15.06392642","RA_OF_ASC_NODE":"51.9490","OBJECT_NAME":"STARLINK-1499","EPHEMERIS_TYPE":"0","REV_AT_EPOCH":"8027","TLE_LINE1":"1 45762U 20038AJ  21327.51451262  .00000510  00000-0  53152-4 0  9994","OBJECT_ID":"2020-038AJ","MEAN_MOTION_DDOT":"0.0000000000000","BSTAR":"0.00005315200000","APOAPSIS":"547.992","CENTER_NAME":"EARTH","REF_FRAME":"TEME","MEAN_ANOMALY":"284.5469","ARG_OF_PERICENTER":"75.5641","TIME_SYSTEM":"UTC","COUNTRY_CODE":"US","SITE":"AFETR","MEAN_ELEMENT_THEORY":"SGP4","TLE_LINE2":"2 45762  53.0559  51.9490 0001091  75.5641 284.5469 15.06392642 80273","MEAN_MOTION_DOT":"0.00000510","EPOCH":"2021-11-23T12:20:53.890368","ELEMENT_SET_NO":"999","PERIOD":"95.593","DECAY_DATE":null,"INCLINATION":"53.0559","RCS_SIZE":"LARGE","OBJECT_TYPE":"PAYLOAD","GP_ID":"190336503"},{"DECAY_DATE":null,"INCLINATION":"53.0546","RCS_SIZE":"LARGE","GP_ID":"190361544","OBJECT_TYPE":"PAYLOAD","MEAN_ELEMENT_THEORY":"SGP4","TLE_LINE2":"2 45763  53.0546 346.3874 0007639 284.3635  75.6533 15.68704522 81403","MEAN_MOTION_DOT":"0.00208784","TIME_SYSTEM":"UTC","SITE":"AFETR","COUNTRY_CODE":"US","ELEMENT_SET_NO":"999","PERIOD":"91.795","EPOCH":"2021-11-23T18:23:52.588896","APOAPSIS":"367.757","MEAN_MOTION_DDOT":"0.0000000000000","BSTAR":"0.00175420000000","CENTER_NAME":"EARTH","REV_AT_EPOCH":"8140","EPHEMERIS_TYPE":"0","OBJECT_ID":"2020-038AK","TLE_LINE1":"1 45763U 20038AK  21327.76658089  .00208784  00000-0  17542-2 0  9992","ARG_OF_PERICENTER":"284.3635","REF_FRAME":"TEME","MEAN_ANOMALY":"75.6533","ECCENTRICITY":"0.00076390","FILE":"3222563","NORAD_CAT_ID":"45763","SEMIMAJOR_AXIS":"6740.743","PERIAPSIS":"357.458","MEAN_MOTION":"15.68704522","CLASSIFICATION_TYPE":"U","RA_OF_ASC_NODE":"346.3874","OBJECT_NAME":"STARLINK-1501","LAUNCH_DATE":"2020-06-13"},{"OBJECT_ID":"2020-038AL","TLE_LINE1":"1 45764U 20038AL  21327.63983406 -.00000401  00000-0 -80135-5 0  9992","REV_AT_EPOCH":"8029","EPHEMERIS_TYPE":"0","CENTER_NAME":"EARTH","APOAPSIS":"548.129","BSTAR":"-0.00000801350000","MEAN_MOTION_DDOT":"0.0000000000000","MEAN_ANOMALY":"276.7819","REF_FRAME":"TEME","ARG_OF_PERICENTER":"83.3320","SEMIMAJOR_AXIS":"6925.350","PERIAPSIS":"546.302","ECCENTRICITY":"0.00013190","NORAD_CAT_ID":"45764","FILE":"3222563","LAUNCH_DATE":"2020-06-13","OBJECT_NAME":"STARLINK-1502","RA_OF_ASC_NODE":"51.3716","MEAN_MOTION":"15.06399477","CLASSIFICATION_TYPE":"U","DECAY_DATE":null,"INCLINATION":"53.0544","RCS_SIZE":"LARGE","GP_ID":"190362296","OBJECT_TYPE":"PAYLOAD","SITE":"AFETR","COUNTRY_CODE":"US","TIME_SYSTEM":"UTC","MEAN_MOTION_DOT":"-0.00000401","TLE_LINE2":"2 45764  53.0544  51.3716 0001319  83.3320 276.7819 15.06399477 80295","MEAN_ELEMENT_THEORY":"SGP4","EPOCH":"2021-11-23T15:21:21.662784","PERIOD":"95.592","ELEMENT_SET_NO":"999"}];
